[{"OBJECT_NAME":"TIANMU-1 12","OBJECT_ID":"2023-205B","EPOCH":"2026-03-09T23:16:21.235872","MEAN_MOTION":15.25812065,"ECCENTRICITY":0.00067383,"INCLINATION":97.3538,"RA_OF_ASC_NODE":91.8946,"ARG_OF_PERICENTER":353.283,"MEAN_ANOMALY":6.8317,"EPHEMERIS_TYPE":0,"CLASSIFICATION_TYPE":"U","NORAD_CAT_ID":58646,"ELEMENT_SET_NO":999,"REV_AT_EPOCH":12237,"BSTAR":0.00029269543,"MEAN_MOTION_DOT":7.417e-5,"MEAN_MOTION_DDOT":0},{"OBJECT_NAME":"STARLINK-35502","OBJECT_ID":"2025-259P","EPOCH":"2026-03-09T22:30:57.169152","MEAN_MOTION":15.27602294,"ECCENTRICITY":0.0001765,"INCLINATION":43.0042,"RA_OF_ASC_NODE":272.5654,"ARG_OF_PERICENTER":281.8342,"MEAN_ANOMALY":78.2312,"EPHEMERIS_TYPE":0,"CLASSIFICATION_TYPE":"U","NORAD_CAT_ID":66435,"ELEMENT_SET_NO":999,"REV_AT_EPOCH":1953,"BSTAR":0.00099151623,"MEAN_MOTION_DOT":0.00027141,"MEAN_MOTION_DDOT":0}]
